OBJECT_NAME,OBJECT_ID,EPOCH,MEAN_MOTION,ECCENTRICITY,INCLINATION,RA_OF_ASC_NODE,ARG_OF_PERICENTER,MEAN_ANOMALY,EPHEMERIS_TYPE,CLASSIFICATION_TYPE,NORAD_CAT_ID,ELEMENT_SET_NO,REV_AT_EPOCH,BSTAR,MEAN_MOTION_DOT,MEAN_MOTION_DDOT
TRANSPORTER-16 OBJECT A,2026-067A,2026-06-17T21:10:08.707872,15.19491912,.00001266,97.4551,127.4519,192.2675,167.8557,0,U,68416,999,1205,.2744189E-3,.5757E-4,0
JACK-002,2026-067B,2026-06-17T19:40:49.888704,15.19401106,.0000115,97.4573,127.4028,15.6543,344.4695,0,U,68417,999,1204,.26850217E-3,.5616E-4,0
OPTISAT,2026-067C,2026-06-17T19:58:27.743520,15.18936994,.00008152,97.4586,127.4053,352.3428,7.7793,0,U,68418,999,1204,.11678836E-3,.2371E-4,0
FEMTO-1,2026-067D,2026-06-17T19:58:19.450848,15.18903132,.00003136,97.4544,127.3610,123.0616,237.0648,0,U,68419,999,1204,.12746081E-3,.2592E-4,0
ERMIS-2,2026-067E,2026-06-17T21:05:09.210912,15.19775987,.00013052,97.4480,127.3932,117.5923,242.5444,0,U,68420,999,1205,.3737246E-3,.7932E-4,0
VIREON-2,2026-067F,2026-06-17T20:08:50.179488,15.18833144,.00010841,97.4523,127.3278,115.4043,244.7303,0,U,68421,999,1204,.17344784E-3,.3544E-4,0
BRO-19,2026-067G,2026-06-17T20:09:30.688992,15.18809924,.00011789,97.4482,127.2885,109.2729,250.8633,0,U,68422,999,1204,.18300011E-3,.374E-4,0
SPOQC,2026-067H,2026-06-17T20:11:36.541824,15.18862830,.0001321,97.4508,127.3116,90.8741,269.2644,0,U,68423,999,1204,.20272376E-3,.4157E-4,0
SPACEVAN-002,2026-067J,2026-06-17T19:17:21.441696,15.18161397,.00035701,97.4512,127.2282,64.4204,295.7399,0,U,68424,999,1203,.12012945E-3,.2386E-4,0
ERMIS-3,2026-067K,2026-06-17T20:18:01.726848,15.18792514,.00017953,97.4589,127.3917,43.9925,316.1452,0,U,68425,999,1204,.23416059E-3,.4803E-4,0
TRANSPORTER-16 OBJECT L,2026-067L,2026-06-17T19:41:29.584320,15.19751276,.00022859,97.4547,127.3822,51.7210,308.4231,0,U,68426,999,1204,.46173589E-3,.9812E-4,0
EMISAR,2026-067M,2026-06-17T19:56:00.467808,15.19369758,.00021534,97.4553,127.3712,50.3196,309.8228,0,U,68427,999,1204,.37187019E-3,.78E-4,0
OUT OF THE BOX (OOTB),2026-067N,2026-06-17T20:32:49.328736,15.18497462,.00023838,97.4576,127.3615,47.9688,312.1749,0,U,68428,999,1204,.15578982E-3,.3145E-4,0
TROOP-F3,2026-067P,2026-06-17T20:04:38.753760,15.19526169,.0004096,97.4511,127.3236,61.3457,298.8189,0,U,68429,999,1204,.57175783E-3,.12092E-3,0
VEGAFLY-1,2026-067Q,2026-06-17T20:08:45.524256,15.19059019,.00019054,97.4501,127.3107,75.8519,284.2927,0,U,68430,999,1204,.29904298E-3,.6201E-4,0
DISCO-2,2026-067R,2026-06-17T20:11:30.538752,15.19081765,.00027322,97.4604,127.4123,42.7414,317.4032,0,U,68431,999,1204,.34977043E-3,.7271E-4,0
NUSAT-53 (JANE GOODALL),2026-067S,2026-06-17T20:36:30.628512,15.18581132,.00035742,97.4563,127.3455,53.5608,306.5955,0,U,68432,999,1204,.22042258E-3,.449E-4,0
T.MICROSAT-2,2026-067T,2026-06-17T20:26:52.444896,15.17399192,.00075515,97.4573,127.2155,67.5178,292.6855,0,U,68433,999,1203,.21362946E-3,.4205E-4,0
VIREON-1,2026-067U,2026-06-17T20:22:31.550592,15.18646554,.00018189,97.4587,127.3812,41.4201,318.7171,0,U,68434,999,1204,.16304881E-3,.3309E-4,0
ION SCV-019 (ASTOUNDING ALEXANDRA),2026-067V,2026-06-17T18:56:49.452000,15.19014518,.000798,97.4550,127.2752,29.9058,330.2631,0,U,68435,999,1203,.13127583E-3,.2681E-4,0
HAWK-14B,2026-067W,2026-06-17T20:59:08.782944,15.18227553,.00041524,97.4550,127.3133,64.5655,295.6009,0,U,68436,999,1204,.17152211E-3,.3443E-4,0
AIGLONSAT-1,2026-067X,2026-06-17T09:01:14.042208,15.19618782,.00044341,97.4506,126.8626,69.7054,290.4657,0,U,68437,999,1197,.58500696E-3,.12408E-3,0
TRANSPORTER-16 OBJECT Y,2026-067Y,2026-06-17T19:58:21.913248,15.19770968,.00048585,97.4532,127.3458,65.4670,294.7071,0,U,68438,999,1204,.70754849E-3,.15094E-3,0
TRANSPORTER-16 OBJECT Z,2026-067Z,2026-06-17T20:15:09.067680,15.19538501,.00047996,97.4516,127.3225,77.3326,282.8445,0,U,68439,999,1204,.59043494E-3,.12495E-3,0
TRANSPORTER-16 OBJECT AA,2026-067AA,2026-06-17T08:45:50.991264,15.20344839,.00053976,97.4503,126.8862,81.2740,278.9107,0,U,68440,999,1197,.8605124E-3,.18691E-3,0
HAWK-14C,2026-067AB,2026-06-17T20:59:18.998016,15.18227659,.00045041,97.4489,127.2157,81.9055,278.2690,0,U,68441,999,1204,.17006924E-3,.3413E-4,0
NUSAT-54 (BRANCA MARQUES),2026-067AC,2026-06-17T20:02:32.087904,15.17743885,.00062986,97.4545,127.2065,74.9837,285.2094,0,U,68442,999,1203,.23439396E-3,.4666E-4,0
DB-WALI-WMU,2026-067AD,2026-06-17T20:09:15.812640,15.17613918,.00064554,97.4555,127.2094,76.5435,283.6517,0,U,68443,999,1203,.20969014E-3,.4151E-4,0
SHARJAH-SAT-2,2026-067AE,2026-06-17T20:16:08.585184,15.18914160,.0002072,97.4577,127.3791,48.3756,311.7655,0,U,68444,999,1204,.26931855E-3,.5554E-4,0
DB SKYFORGE CORE TU,2026-067AF,2026-06-17T20:23:08.065824,15.17376854,.00068997,97.4526,127.1664,80.1176,280.0836,0,U,68445,999,1203,.17039298E-3,.3338E-4,0
HADES-SA (SPINNYONE),2026-067AG,2026-06-17T19:33:06.958368,15.19078969,.0009479,97.4412,127.1017,80.5159,279.7146,0,U,68446,999,1202,.72585466E-3,.15192E-3,0
IRIDE-MS1-EAGLET 2-14,2026-067AH,2026-06-17T20:18:42.156864,15.18970729,.00026804,97.4523,127.3234,63.5645,296.5865,0,U,68447,999,1204,.31506315E-3,.6521E-4,0
HAWK-14A,2026-067AJ,2026-06-17T20:59:27.533472,15.18229686,.00052918,97.4611,127.4178,81.1640,279.0193,0,U,68448,999,1204,.16847179E-3,.3381E-4,0
IRIDE-MS1-EAGLET 2-9,2026-067AK,2026-06-17T21:22:23.838816,15.18082590,.00059555,97.4514,127.2564,78.2985,281.8917,0,U,68449,999,1204,.25473653E-3,.5126E-4,0
IRIDE-MS1-EAGLET 2-13,2026-067AL,2026-06-17T20:27:07.923456,15.18860313,.0003353,97.4550,127.3444,57.5832,302.5726,0,U,68450,999,1204,.31438864E-3,.6486E-4,0
IRIDE-MS1-EAGLET 2-10,2026-067AM,2026-06-17T20:22:17.308416,15.18919046,.00028449,97.4508,127.3047,66.1569,293.9963,0,U,68451,999,1204,.30848806E-3,.6374E-4,0
IRIDE-MS1-EAGLET 2-16,2026-067AN,2026-06-17T21:18:03.218400,15.18140969,.00058773,97.4550,127.2984,73.4490,286.7389,0,U,68452,999,1204,.24399415E-3,.4916E-4,0
IRIDE-MS1-EAGLET 2-11,2026-067AP,2026-06-17T20:28:50.543328,15.18823182,.00035407,97.4553,127.3464,56.4720,303.6852,0,U,68453,999,1204,.30085818E-3,.6197E-4,0
AISSAT 4,2026-067AQ,2026-06-17T20:06:41.498784,15.17798434,.00072188,97.4578,127.2391,71.0282,289.1734,0,U,68454,999,1203,.2966592E-3,.5934E-4,0
DB CHARMS ND,2026-067AR,2026-06-17T20:25:50.228256,15.17383349,.00074363,97.4582,127.2230,69.4309,290.7722,0,U,68455,999,1203,.19034924E-3,.3737E-4,0
PARUS-6U1,2026-067AS,2026-06-17T20:20:52.845504,15.17522544,.00074433,97.4556,127.2011,70.1823,290.0212,0,U,68456,999,1203,.24085711E-3,.4767E-4,0
TRANSPORTER-16 OBJECT AT,2026-067AT,2026-06-17T19:53:21.487488,15.19477014,.00023326,97.4548,127.3720,52.9766,307.1682,0,U,68457,999,1204,.40775087E-3,.8586E-4,0
SAL-E,2026-067AU,2026-06-17T20:14:09.605472,15.17763169,.00078853,97.4481,127.1321,77.3462,282.8653,0,U,68458,999,1203,.32417002E-3,.6485E-4,0
DB GME UT (DB-GLOBE MISSION EARTH-UT),2026-067AV,2026-06-17T20:26:34.463328,15.17466289,.00078732,97.4537,127.1761,70.7040,289.5045,0,U,68459,999,1203,.24177363E-3,.4778E-4,0
COSMO,2026-067AW,2026-06-17T20:16:37.320960,15.17866947,.00081121,97.4497,127.1508,74.2899,285.9229,0,U,68460,999,1203,.45245301E-3,.9109E-4,0
IRIDE-MS1-EAGLET 2-12,2026-067AX,2026-06-17T19:41:23.625312,15.18179054,.00058543,97.4553,127.2385,74.8600,285.3281,0,U,68461,999,1203,.3122927E-3,.6318E-4,0
IRIDE-MS1-EAGLET 2-15,2026-067AY,2026-06-17T20:33:56.559168,15.18756015,.00039344,97.4554,127.3445,57.0810,303.0803,0,U,68462,999,1204,.29180759E-3,.5997E-4,0
GARAI-B (UNAMUNO),2026-067AZ,2026-06-17T21:29:54.362112,15.17837047,.00055751,97.4539,127.2745,77.1583,283.0273,0,U,68463,999,1204,.30123453E-3,.6032E-4,0
FGN-100-D3,2026-067BA,2026-06-17T19:57:23.009184,15.17693757,.00050892,97.4523,127.1879,86.9300,273.2516,0,U,68464,999,1203,.21405928E-3,.4248E-4,0
HOTSAT-2,2026-067BB,2026-06-17T20:01:47.622144,15.17543487,.0005193,97.4529,127.1908,78.3216,281.8600,0,U,68465,999,1203,.13813441E-3,.2705E-4,0
DB-PFW,2026-067BC,2026-06-17T02:59:06.421632,15.17598153,.00081837,97.4490,126.4165,84.2083,276.0084,0,U,68466,999,1177,.29247826E-3,.5817E-4,0
TRANSPORTER-16 OBJECT BD,2026-067BD,2026-06-17T21:03:47.625120,15.19052214,.00088523,97.4415,127.1747,81.1299,279.0938,0,U,68467,999,1204,.67555529E-3,.14119E-3,0
ERMIS-1,2026-067BE,2026-06-17T18:48:56.854368,15.17709354,.00087064,97.4554,127.1368,63.9762,296.2367,0,U,68468,999,1202,.35397806E-3,.7079E-4,0
LUNA-2,2026-067BG,2026-06-17T20:32:20.552352,15.17438615,.00088802,97.4481,127.1163,72.4433,287.7770,0,U,68470,999,1203,.21671025E-3,.4273E-4,0
LEMUR-2-DELOITTE-3,2026-067BH,2026-06-17T21:10:08.786496,14.91587895,.00054948,97.7572,127.0411,64.2428,295.9357,0,U,68471,999,1183,.39613577E-3,.392E-4,0
FLYLAB1,2026-067BJ,2026-06-17T20:01:35.254848,14.90910533,.0005524,97.7631,126.9967,52.1605,308.0112,0,U,68472,999,1182,.25007037E-3,.2412E-4,0
VIGORIDE-7,2026-067BK,2026-06-17T20:19:49.829664,15.22358477,.00110441,97.4542,127.4917,139.2117,220.9948,0,U,68473,999,1203,.3037752E-3,.6951E-4,0
BLACK KITE-2,2026-067BL,2026-06-17T19:37:47.987328,14.92583569,.00008919,97.7547,127.0972,191.8740,168.2458,0,U,68474,999,1182,.20409701E-3,.2043E-4,0
UNICORN-2S,2026-067BM,2026-06-17T19:17:49.659936,14.92038187,.00059687,97.7509,126.9355,64.8287,295.3550,0,U,68475,999,1129,.68403387E-3,.689E-4,0
LEMUR-2-JULIA-JOEL,2026-067BN,2026-06-17T21:10:32.359008,14.92741545,.00005339,97.7561,127.1800,236.8366,123.2803,0,U,68476,999,1183,.32511342E-3,.3302E-4,0
TRANSPORTER-16 OBJECT BP,2026-067BP,2026-06-17T20:57:13.095072,14.91893218,.00064014,97.7512,127.0047,72.5735,287.6184,0,U,68477,999,1123,.47646445E-3,.4764E-4,0
FOSSASAT-2E25,2026-067BQ,2026-06-17T20:02:51.991008,14.92136385,.00005591,97.7599,127.1187,335.3932,24.7260,0,U,68478,999,1182,.79008669E-4,.748E-5,0
LEMUR-2-PEGGY-2004,2026-067BR,2026-06-17T19:44:37.741056,14.92745628,.00007822,97.7546,127.0906,114.2046,245.9255,0,U,68479,999,1182,.51616941E-3,.5277E-4,0
LEMUR-2-IRINA,2026-067BS,2026-06-17T20:52:27.665760,14.92935437,.0002069,97.7625,127.2562,272.9725,87.1258,0,U,68480,999,1183,.22697583E-3,.2299E-4,0
